{
    "links": {
        "self": "http://www.neowsapp.com/rest/v1/neo/3668954?api_key=iIulBulltgU6a56xZRHN4H3l9WmuAYTsLGpBGhQ2"
    },
    "id": "3668954",
    "neo_reference_id": "3668954",
    "name": "(2014 HK2)",
    "designation": "2014 HK2",
    "nasa_jpl_url": "http://ssd.jpl.nasa.gov/sbdb.cgi?sstr=3668954",
    "absolute_magnitude_h": 20.4,
    "estimated_diameter": {
        "kilometers": {
            "estimated_diameter_min": 0.2210828104,
            "estimated_diameter_max": 0.4943561926
        },
        "meters": {
            "estimated_diameter_min": 221.0828103591,
            "estimated_diameter_max": 494.3561926196
        },
        "miles": {
            "estimated_diameter_min": 0.137374447,
            "estimated_diameter_max": 0.3071786018
        },
        "feet": {
            "estimated_diameter_min": 725.3373275385,
            "estimated_diameter_max": 1621.9035709942
        }
    },
    "is_potentially_hazardous_asteroid": false,
    "close_approach_data": [
        {
            "close_approach_date": "1976-05-13",
            "close_approach_date_full": "1976-May-13 17:39",
            "epoch_date_close_approach": 200857140000,
            "relative_velocity": {
                "kilometers_per_second": "16.7170574402",
                "kilometers_per_hour": "60181.406784612",
                "miles_per_hour": "37394.3857879163"
            },
            "miss_distance": {
                "astronomical": "0.4735337388",
                "lunar": "184.2046243932",
                "kilometers": "70839638.697616356",
                "miles": "44017710.3583474728"
            },
            "orbiting_body": "Earth"
        },
        {
            "close_approach_date": "1995-06-06",
            "close_approach_date_full": "1995-Jun-06 17:06",
            "epoch_date_close_approach": 802458360000,
            "relative_velocity": {
                "kilometers_per_second": "9.0137256047",
                "kilometers_per_hour": "32449.4121768683",
                "miles_per_hour": "20162.8028051213"
            },
            "miss_distance": {
                "astronomical": "0.1657779066",
                "lunar": "64.4876056674",
                "kilometers": "24800021.720418942",
                "miles": "15410018.9249957196"
            },
            "orbiting_body": "Earth"
        },
        {
            "close_approach_date": "2012-05-26",
            "close_approach_date_full": "2012-May-26 03:57",
            "epoch_date_close_approach": 1338004620000,
            "relative_velocity": {
                "kilometers_per_second": "4.7549291622",
                "kilometers_per_hour": "17117.7449838367",
                "miles_per_hour": "10636.3010428734"
            },
            "miss_distance": {
                "astronomical": "1.9922771279",
                "lunar": "774.9958027531",
                "kilometers": "298040414.783557573",
                "miles": "185193726.1993095874"
            },
            "orbiting_body": "Juptr"
        },
        {
            "close_approach_date": "2014-07-05",
            "close_approach_date_full": "2014-Jul-05 18:37",
            "epoch_date_close_approach": 1404585420000,
            "relative_velocity": {
                "kilometers_per_second": "14.6959308766",
                "kilometers_per_hour": "52905.3511557265",
                "miles_per_hour": "32873.3277778457"
            },
            "miss_distance": {
                "astronomical": "0.4233536284",
                "lunar": "164.6845614476",
                "kilometers": "63332801.065411508",
                "miles": "39353177.7509464904"
            },
            "orbiting_body": "Earth"
        },
        {
            "close_approach_date": "2033-06-02",
            "close_approach_date_full": "2033-Jun-02 01:55",
            "epoch_date_close_approach": 2001290100000,
            "relative_velocity": {
                "kilometers_per_second": "10.0268700581",
                "kilometers_per_hour": "36096.732209137",
                "miles_per_hour": "22429.1056329496"
            },
            "miss_distance": {
                "astronomical": "0.1537174577",
                "lunar": "59.7960910453",
                "kilometers": "22995804.253735099",
                "miles": "14288930.1767744062"
            },
            "orbiting_body": "Earth"
        }
    ],
    "orbital_data": {
        "orbit_id": "10",
        "orbit_determination_date": "2017-04-06 08:41:34",
        "first_observation_date": "2014-04-20",
        "last_observation_date": "2014-07-10",
        "data_arc_in_days": 81,
        "observations_used": 28,
        "orbit_uncertainty": "6",
        "minimum_orbit_intersection": ".127645",
        "jupiter_tisserand_invariant": "3.267",
        "epoch_osculation": "2459000.5",
        "eccentricity": ".5307502769717108",
        "semi_major_axis": "2.4312388538468",
        "inclination": "13.43775120269151",
        "ascending_node_longitude": "74.30447214972065",
        "orbital_period": "1384.649548179767",
        "perihelion_distance": "1.140858158783226",
        "perihelion_argument": "187.3364547586989",
        "aphelion_distance": "3.721619548910374",
        "perihelion_time": "2459612.232916696079",
        "mean_anomaly": "200.9533659256304",
        "mean_motion": ".2599935850000811",
        "equinox": "J2000",
        "orbit_class": {
            "orbit_class_type": "AMO",
            "orbit_class_description": "Near-Earth asteroid orbits similar to that of 1221 Amor",
            "orbit_class_range": "1.017 AU < q (perihelion) < 1.3 AU"
        }
    },
    "is_sentry_object": false
}